[{"OBJECT_NAME":"STARLINK-31507","OBJECT_ID":"2024-064D","EPOCH":"2026-03-08T07:00:51.471360","MEAN_MOTION":15.2758917,"ECCENTRICITY":0.00011456,"INCLINATION":43.0025,"RA_OF_ASC_NODE":63.9239,"ARG_OF_PERICENTER":276.0701,"MEAN_ANOMALY":84.002,"EPHEMERIS_TYPE":0,"CLASSIFICATION_TYPE":"U","NORAD_CAT_ID":59401,"ELEMENT_SET_NO":999,"REV_AT_EPOCH":10895,"BSTAR":8.7352732e-5,"MEAN_MOTION_DOT":2.143e-5,"MEAN_MOTION_DDOT":0},{"OBJECT_NAME":"OBJECT G","OBJECT_ID":"2025-155G","EPOCH":"2026-03-09T22:09:56.639808","MEAN_MOTION":15.27590702,"ECCENTRICITY":0.00081871,"INCLINATION":97.4488,"RA_OF_ASC_NODE":37.3259,"ARG_OF_PERICENTER":154.1528,"MEAN_ANOMALY":206.0122,"EPHEMERIS_TYPE":0,"CLASSIFICATION_TYPE":"U","NORAD_CAT_ID":64882,"ELEMENT_SET_NO":999,"REV_AT_EPOCH":6559,"BSTAR":0.0004792617,"MEAN_MOTION_DOT":0.00012876,"MEAN_MOTION_DDOT":0}]
